NORAD_CAT_ID,OBJECT_NAME,OBJECT_TYPE,EPOCH,MEAN_MOTION,ECCENTRICITY,INCLINATION,RA_OF_ASC_NODE,ARG_OF_PERICENTER,MEAN_ANOMALY,BSTAR,MEAN_MOTION_DOT,MEAN_MOTION_DDOT,TLE_LINE0,TLE_LINE1,TLE_LINE2,SEMIMAJOR_AXIS,PERIOD,APOGEE,PERIGEE,DECAYED
55929.0,STARLINK-5898,PAYLOAD,2024-03-30 20:30:39,14.98337604,0.0002972,69.9995,291.5539,271.1696,88.9122,5.287e-05,5.38e-06,0.0,0 STARLINK-5898,1 55929U 23037R   24090.85461837  .00000538  00000-0  52870-4 0  9994,2 55929  69.9995 291.5539 0002972 271.1696  88.9122 14.98337604 57653,6950.169,96.107,574.1,569.969,0.0
55929.0,STARLINK-5898,PAYLOAD,2024-03-30 22:06:47,14.98336653,0.0002996,69.9993,291.3856,271.2327,88.8489,3.7614e-05,3.56e-06,0.0,0 STARLINK-5898,1 55929U 23037R   24090.92137886  .00000356  00000-0  37614-4 0  9993,2 55929  69.9993 291.3856 0002996 271.2327  88.8489 14.98336653 57321,6950.172,96.107,574.12,569.955,0.0
55929.0,STARLINK-5898,PAYLOAD,2024-03-31 14:08:07,14.98333669,0.0003032,69.9987,289.7021,271.4323,88.6489,9.4947e-05,1.04e-05,0.0,0 STARLINK-5898,1 55929U 23037R   24091.58897654  .00001040  00000-0  94947-4 0  9995,2 55929  69.9987 289.7021 0003032 271.4323  88.6489 14.98333669 57422,6950.182,96.107,574.154,569.939,0.0
55929.0,STARLINK-5898,PAYLOAD,2024-03-31 20:32:39,14.98334358,0.0002988,69.9987,289.0292,269.85,90.2317,9.7503e-05,1.071e-05,0.0,0 STARLINK-5898,1 55929U 23037R   24091.85601565  .00001071  00000-0  97503-4 0  9994,2 55929  69.9987 289.0292 0002988 269.8500  90.2317 14.98334358 57809,6950.179,96.107,574.121,569.968,0.0
55929.0,STARLINK-5898,PAYLOAD,2024-03-31 22:08:47,14.98334446,0.0002989,69.9987,288.8608,269.9279,90.1537,9.6667e-05,1.061e-05,0.0,0 STARLINK-5898,1 55929U 23037R   24091.92277548  .00001061  00000-0  96667-4 0  9991,2 55929  69.9987 288.8608 0002989 269.9279  90.1537 14.98334446 57476,6950.179,96.107,574.122,569.967,0.0
55929.0,STARLINK-5898,PAYLOAD,2024-04-01 12:34:00,14.98328389,0.0002883,69.9989,287.3467,266.5667,93.5162,4.5134e-05,4.46e-06,0.0,0 STARLINK-5898,1 55929U 23037R   24092.52361976  .00000446  00000-0  45134-4 0  9996,2 55929  69.9989 287.3467 0002883 266.5667  93.5162 14.98328389 57900,6950.198,96.107,574.067,570.059,0.0
55929.0,STARLINK-5898,PAYLOAD,2024-04-01 14:10:08,14.98327547,0.0002896,69.9988,287.1782,266.8477,93.2351,3.1438e-05,2.82e-06,0.0,0 STARLINK-5898,1 55929U 23037R   24092.59038061  .00000282  00000-0  31438-4 0  9999,2 55929  69.9988 287.1782 0002896 266.8477  93.2351 14.98327547 57578,6950.2,96.107,574.078,570.053,0.0
55929.0,STARLINK-5898,PAYLOAD,2024-04-02 06:11:29,14.98330209,0.0002981,69.9987,285.4944,269.142,90.9397,2.26e-05,1.77e-06,0.0,0 STARLINK-5898,1 55929U 23037R   24093.25797989  .00000177  00000-0  22600-4 0  9998,2 55929  69.9987 285.4944 0002981 269.1420  90.9397 14.98330209 57671,6950.192,96.107,574.129,569.985,0.0
55929.0,STARLINK-5898,PAYLOAD,2024-04-02 19:00:33,14.98333465,0.0003012,69.9986,284.1472,268.6237,91.4577,3.8053e-05,3.61e-06,0.0,0 STARLINK-5898,1 55929U 23037R   24093.79205640  .00000361  00000-0  38053-4 0  9999,2 55929  69.9986 284.1472 0003012 268.6237  91.4577 14.98333465 58098,6950.182,96.107,574.141,569.954,0.0
55929.0,STARLINK-5898,PAYLOAD,2024-04-02 22:12:49,14.98332865,0.0003028,69.9985,283.8104,268.648,91.4332,2.8902e-05,2.52e-06,0.0,0 STARLINK-5898,1 55929U 23037R   24093.92557684  .00000252  00000-0  28902-4 0  9993,2 55929  69.9985 283.8104 0003028 268.6480  91.4332 14.98332865 57778,6950.184,96.107,574.154,569.945,0.0
55929.0,STARLINK-5898,PAYLOAD,2024-04-03 12:38:01,14.98334261,0.0003918,69.9981,282.2947,267.9292,92.1418,0.00016338,1.857e-05,0.0,0 STARLINK-5898,1 55929U 23037R   24094.52640814  .00001857  00000-0  16338-3 0  9999,2 55929  69.9981 282.2947 0003918 267.9292  92.1418 14.98334261 57868,6950.18,96.107,574.768,569.322,0.0
55929.0,STARLINK-5898,PAYLOAD,2024-04-03 19:02:31,14.98360568,0.0003083,69.9981,281.6206,269.481,90.5995,0.00040682,4.768e-05,0.0,0 STARLINK-5898,1 55929U 23037R   24094.79342427  .00004768  00000-0  40682-3 0  9990,2 55929  69.9981 281.6206 0003083 269.4810  90.5995 14.98360568 58249,6950.098,96.105,574.106,569.821,0.0
55929.0,STARLINK-5898,PAYLOAD,2024-04-03 20:38:39,14.9836176,0.0003171,69.9982,281.4526,269.0743,91.0052,0.00042159,4.945e-05,0.0,0 STARLINK-5898,1 55929U 23037R   24094.86018231  .00004945  00000-0  42159-3 0  9999,2 55929  69.9982 281.4526 0003171 269.0743  91.0052 14.98361760 57910,6950.095,96.105,574.164,569.756,0.0
55929.0,STARLINK-5898,PAYLOAD,2024-04-04 12:40:02,14.98338074,0.0002494,69.998,279.7691,270.1004,89.9869,7.3156e-05,7.8e-06,0.0,0 STARLINK-5898,1 55929U 23037R   24095.52780157  .00000780  00000-0  73156-4 0  9991,2 55929  69.9980 279.7691 0002494 270.1004  89.9869 14.98338074 58354,6950.168,96.106,573.766,570.3,0.0
55929.0,STARLINK-5898,PAYLOAD,2024-04-04 14:16:10,14.98334877,0.0002595,69.9978,279.6009,269.4241,90.6621,3.4083e-05,3.14e-06,0.0,0 STARLINK-5898,1 55929U 23037R   24095.59456386  .00000314  00000-0  34083-4 0  9991,2 55929  69.9978 279.6009 0002595 269.4241  90.6621 14.98334877 58025,6950.178,96.107,573.846,570.239,0.0
55929.0,STARLINK-5898,PAYLOAD,2024-04-04 20:40:43,14.98327698,0.0003116,69.998,278.9288,267.9253,92.1549,-7.8239e-05,-1.026e-05,0.0,0 STARLINK-5898,1 55929U 23037R   24095.86160981 -.00001026  00000-0 -78239-4 0  9998,2 55929  69.9980 278.9288 0003116 267.9253  92.1549 14.98327698 58406,6950.2,96.107,574.231,569.899,0.0
55929.0,STARLINK-5898,PAYLOAD,2024-04-04 22:16:51,14.98327794,0.000314,69.9979,278.7604,268.011,92.069,-7.8348e-05,-1.028e-05,0.0,0 STARLINK-5898,1 55929U 23037R   24095.92836956 -.00001028  00000-0 -78348-4 0  9990,2 55929  69.9979 278.7604 0003140 268.0110  92.0690 14.98327794 58071,6950.2,96.107,574.247,569.882,0.0
55929.0,STARLINK-5898,PAYLOAD,2024-04-05 12:42:03,14.98336886,0.0003084,69.998,277.2454,269.5763,90.5043,-0.00026542,-3.259e-05,0.0,0 STARLINK-5898,1 55929U 23037R   24096.52920801 -.00003259  00000-0 -26542-3 0  9996,2 55929  69.9980 277.2454 0003084 269.5763  90.5043 14.98336886 58164,6950.172,96.107,574.18,569.893,0.0
55929.0,STARLINK-5898,PAYLOAD,2024-04-05 19:06:35,14.98340794,0.0003093,69.9983,276.571,270.7665,89.314,-0.00029391,-3.599e-05,0.0,0 STARLINK-5898,1 55929U 23037R   24096.79624464 -.00003599  00000-0 -29391-3 0  9993,2 55929  69.9983 276.5710 0003093 270.7665  89.3140 14.98340794 58548,6950.16,96.106,574.174,569.875,0.0
55929.0,STARLINK-5898,PAYLOAD,2024-04-05 20:42:43,14.98340371,0.0003102,69.9983,276.4026,270.8902,89.1901,-0.00028996,-3.552e-05,0.0,0 STARLINK-5898,1 55929U 23037R   24096.86300451 -.00003552  00000-0 -28996-3 0  9997,2 55929  69.9983 276.4026 0003102 270.8902  89.1901 14.98340371 58211,6950.161,96.106,574.182,569.87,0.0
55929.0,STARLINK-5898,PAYLOAD,2024-04-06 11:07:56,14.98322384,0.0002815,69.9984,274.8877,271.8396,88.244,1.947e-05,1.39e-06,0.0,0 STARLINK-5898,1 55929U 23037R   24097.46384874  .00000139  00000-0  19470-4 0  9999,2 55929  69.9984 274.8877 0002815 271.8396  88.2440 14.98322384 58645,6950.216,96.107,574.038,570.125,0.0
55929.0,STARLINK-5898,PAYLOAD,2024-04-06 19:08:35,14.9836254,0.0003167,69.9985,274.046,269.8189,90.2607,-0.00066509,-8.027e-05,0.0,0 STARLINK-5898,1 55929U 23037R   24097.79763885 -.00008027  00000-0 -66509-3 0  9998,2 55929  69.9985 274.0460 0003167 269.8189  90.2607 14.98362540 58695,6950.092,96.105,574.158,569.756,0.0
55929.0,STARLINK-5898,PAYLOAD,2024-04-06 22:20:48,14.98384681,0.0003365,70.0004,273.7094,273.0834,86.994,0.00041689,4.892e-05,0.0,0 STARLINK-5898,1 55929U 23037R   24097.93112201  .00004892  00000-0  41689-3 0  9990,2 55929  70.0004 273.7094 0003365 273.0834  86.9940 14.98384681 58370,6950.024,96.103,574.227,569.55,0.0
55929.0,STARLINK-5898,PAYLOAD,2024-04-07 14:22:14,14.98313821,0.0003022,69.9986,272.0261,270.7106,89.3706,-1.4513e-05,-2.66e-06,0.0,0 STARLINK-5898,1 55929U 23037R   24098.59878360 -.00000266  00000-0 -14513-4 0  9998,2 55929  69.9986 272.0261 0003022 270.7106  89.3706 14.98313821 58476,6950.243,96.108,574.208,570.008,0.0
55929.0,STARLINK-5898,PAYLOAD,2024-04-07 22:25:20,14.96383922,0.0004835,69.9981,271.1899,199.2112,160.8865,-0.022342,-0.00245014,0.0,0 STARLINK-5898,1 55929U 23037R   24098.93426243 -.00245014  00000-0 -22342-1 0  9993,2 55929  69.9981 271.1899 0004835 199.2112 160.8865 14.96383922 58527,6956.217,96.232,581.446,574.719,0.0
55929.0,STARLINK-5898,PAYLOAD,2024-04-08 14:00:01,14.98349451,0.0003082,70.0002,269.5429,267.0788,2.1692,-0.0025797,-0.00030755,0.0,0 STARLINK-5898,1 55929U 23037R   24099.58334491 -.00030755  00000-0 -25797-2 0  9990,2 55929  70.0002 269.5429 0003082 267.0788   2.1692 14.98349451 58965,6950.133,96.106,574.14,569.856,0.0
55929.0,STARLINK-5898,PAYLOAD,2024-04-08 22:00:00,14.98314324,0.0003104,70.0,268.7023,273.0685,353.6725,0.0032851,0.00039309,0.0,0 STARLINK-5898,1 55929U 23037R   24099.91667824  .00039309  00000-0  32851-2 0  9997,2 55929  70.0000 268.7023 0003104 273.0685 353.6725 14.98314324  5786,6950.241,96.108,574.264,569.949,0.0
55929.0,STARLINK-5898,PAYLOAD,2024-04-09 12:50:08,14.98328,0.0003048,69.9985,267.1442,269.3009,90.7801,0.00022784,2.626e-05,0.0,0 STARLINK-5898,1 55929U 23037R   24100.53482155  .00002626  00000-0  22784-3 0  9997,2 55929  69.9985 267.1442 0003048 269.3009  90.7801 14.98328000 59103,6950.199,96.107,574.182,569.946,0.0
55929.0,STARLINK-5898,PAYLOAD,2024-04-09 14:26:16,14.98328588,0.0003046,69.9985,266.9758,269.2688,90.8122,0.00024979,2.889e-05,0.0,0 STARLINK-5898,1 55929U 23037R   24100.60158119  .00002889  00000-0  24979-3 0  9994,2 55929  69.9985 266.9758 0003046 269.2688  90.8122 14.98328588 58770,6950.197,96.107,574.179,569.945,0.0
55929.0,STARLINK-5898,PAYLOAD,2024-04-09 20:50:48,14.98335183,0.0003046,69.9985,266.3025,269.064,91.017,0.00033464,3.903e-05,0.0,0 STARLINK-5898,1 55929U 23037R   24100.86861887  .00003903  00000-0  33464-3 0  9992,2 55929  69.9985 266.3025 0003046 269.0640  91.0170 14.98335183 58817,6950.177,96.107,574.159,569.925,0.0
